{"type": "FeatureCollection", "features": [ {"type": "Feature", "properties": {"norad_id": 34637, "name": "COSMOS 2251 DEB", "group": "cosmos-2251-debris", "lat": 66.26805724582793, "lon": -143.12083377016876, "alt_km": 658.0184406417975, "timestamp": "2025-12-25T03:55:56.762137+00:00", "meta": {"OBJECT_NAME": "COSMOS 2251 DEB", "OBJECT_ID": "1993-036XJ", "EPOCH": "2025-12-24T16:37:42.450816", "MEAN_MOTION": 14.60194617, "ECCENTRICITY": 0.004885, "INCLINATION": 74.0492, "RA_OF_ASC_NODE": 78.3604, "ARG_OF_PERICENTER": 145.6397, "MEAN_ANOMALY": 7.5755, "EPHEMERIS_TYPE": 0, "CLASSIFICATION_TYPE": "U", "NORAD_CAT_ID": 34637, "ELEMENT_SET_NO": 999, "REV_AT_EPOCH": 88701, "BSTAR": 0.00083896, "MEAN_MOTION_DOT": 4.084e-05, "MEAN_MOTION_DDOT": 0}, "tle": {"line1": "1 34637U 93036XJ  25358.69285244  .00004084  00000+0  83896-3 0  9999", "line2": "2 34637  74.0492  78.3604 0048850 145.6397   7.5755 14.60194617887011"}}, "geometry": {"type": "Point", "coordinates": [-143.12083377016876, 66.26805724582793]}}, {"type": "Feature", "properties": {"norad_id": 34641, "name": "COSMOS 2251 DEB", "group": "cosmos-2251-debris", "lat": 72.25667999813055, "lon": 172.9706700655772, "alt_km": 719.8273120760132, "timestamp": "2025-12-25T03:55:56.762147+00:00", "meta": {"OBJECT_NAME": "COSMOS 2251 DEB", "OBJECT_ID": "1993-036XN", "EPOCH": "2025-12-24T14:57:09.043776", "MEAN_MOTION": 14.52077524, "ECCENTRICITY": 0.0019217, "INCLINATION": 73.8396, "RA_OF_ASC_NODE": 58.9899, "ARG_OF_PERICENTER": 331.0498, "MEAN_ANOMALY": 180.1211, "EPHEMERIS_TYPE": 0, "CLASSIFICATION_TYPE": "U", "NORAD_CAT_ID": 34641, "ELEMENT_SET_NO": 999, "REV_AT_EPOCH": 88428, "BSTAR": 0.00072336, "MEAN_MOTION_DOT": 2.905e-05, "MEAN_MOTION_DDOT": 0}, "tle": {"line1": "1 34641U 93036XN  25358.62302134  .00002905  00000+0  72336-3 0  9992", "line2": "2 34641  73.8396  58.9899 0019217 331.0498 180.1211 14.52077524884283"}}, "geometry": {"type": "Point", "coordinates": [172.9706700655772, 72.25667999813055]}}, {"type": "Feature", "properties": {"norad_id": 34642, "name": "COSMOS 2251 DEB", "group": "cosmos-2251-debris", "lat": -29.158018059269637, "lon": -50.926957587136414, "alt_km": 1048.073944246481, "timestamp": "2025-12-25T03:55:56.762157+00:00", "meta": {"OBJECT_NAME": "COSMOS 2251 DEB", "OBJECT_ID": "1993-036XP", "EPOCH": "2025-12-22T21:18:46.794240", "MEAN_MOTION": 13.99000221, "ECCENTRICITY": 0.02065395, "INCLINATION": 74.0044, "RA_OF_ASC_NODE": 322.2225, "ARG_OF_PERICENTER": 139.6532, "MEAN_ANOMALY": 253.1213, "EPHEMERIS_TYPE": 0, "CLASSIFICATION_TYPE": "U", "NORAD_CAT_ID": 34642, "ELEMENT_SET_NO": 999, "REV_AT_EPOCH": 85435, "BSTAR": 0.00078596345, "MEAN_MOTION_DOT": 1.341e-05, "MEAN_MOTION_DDOT": 0}, "tle": {"line1": "1 34642U 93036XP  25356.88804160  .00001341  00000+0  78596-3 0  9992", "line2": "2 34642  74.0044 322.2225 0206539 139.6532 253.1213 13.99000221854351"}}, "geometry": {"type": "Point", "coordinates": [-50.926957587136414, -29.158018059269637]}}, {"type": "Feature", "properties": {"norad_id": 34671, "name": "COSMOS 2251 DEB", "group": "cosmos-2251-debris", "lat": 27.88593251293972, "lon": -78.40733748357226, "alt_km": 662.9056747133418, "timestamp": "2025-12-25T03:55:56.762168+00:00", "meta": {"OBJECT_NAME": "COSMOS 2251 DEB", "OBJECT_ID": "1993-036XR", "EPOCH": "2025-12-23T01:02:34.173312", "MEAN_MOTION": 14.67102739, "ECCENTRICITY": 0.00106686, "INCLINATION": 74.0274, "RA_OF_ASC_NODE": 114.4027, "ARG_OF_PERICENTER": 195.4789, "MEAN_ANOMALY": 280.8159, "EPHEMERIS_TYPE": 0, "CLASSIFICATION_TYPE": "U", "NORAD_CAT_ID": 34671, "ELEMENT_SET_NO": 999, "REV_AT_EPOCH": 88448, "BSTAR": 0.0017957882, "MEAN_MOTION_DOT": 0.0001008, "MEAN_MOTION_DDOT": 0}, "tle": {"line1": "1 34671U 93036XR  25357.04345108  .00010080  00000+0  17958-2 0  9999", "line2": "2 34671  74.0274 114.4027 0010668 195.4789 280.8159 14.67102739884485"}}, "geometry": {"type": "Point", "coordinates": [-78.40733748357226, 27.88593251293972]}}, {"type": "Feature", "properties": {"norad_id": 34672, "name": "COSMOS 2251 DEB", "group": "cosmos-2251-debris", "lat": 40.10458206264897, "lon": -63.283831655420535, "alt_km": 755.678688161418, "timestamp": "2025-12-25T03:55:56.762194+00:00", "meta": {"OBJECT_NAME": "COSMOS 2251 DEB", "OBJECT_ID": "1993-036XS", "EPOCH": "2025-12-23T01:39:52.431840", "MEAN_MOTION": 14.36424251, "ECCENTRICITY": 0.00243004, "INCLINATION": 74.0343, "RA_OF_ASC_NODE": 286.6106, "ARG_OF_PERICENTER": 356.389, "MEAN_ANOMALY": 18.9966, "EPHEMERIS_TYPE": 0, "CLASSIFICATION_TYPE": "U", "NORAD_CAT_ID": 34672, "ELEMENT_SET_NO": 999, "REV_AT_EPOCH": 65326, "BSTAR": 0.00025150328, "MEAN_MOTION_DOT": 7.13e-06, "MEAN_MOTION_DDOT": 0}, "tle": {"line1": "1 34672U 93036XS  25357.06935685  .00000713  00000+0  25150-3 0  9993", "line2": "2 34672  74.0343 286.6106 0024300 356.3890  18.9966 14.36424251653260"}}, "geometry": {"type": "Point", "coordinates": [-63.283831655420535, 40.10458206264897]}}, {"type": "Feature", "properties": {"norad_id": 34678, "name": "COSMOS 2251 DEB", "group": "cosmos-2251-debris", "lat": -55.78286994973844, "lon": -41.785668327070375, "alt_km": 797.443788832391, "timestamp": "2025-12-25T03:55:56.762208+00:00", "meta": {"OBJECT_NAME": "COSMOS 2251 DEB", "OBJECT_ID": "1993-036XY", "EPOCH": "2025-12-24T17:16:16.188384", "MEAN_MOTION": 14.30067072, "ECCENTRICITY": 0.0024791, "INCLINATION": 74.0378, "RA_OF_ASC_NODE": 343.9119, "ARG_OF_PERICENTER": 29.3456, "MEAN_ANOMALY": 145.6372, "EPHEMERIS_TYPE": 0, "CLASSIFICATION_TYPE": "U", "NORAD_CAT_ID": 34678, "ELEMENT_SET_NO": 999, "REV_AT_EPOCH": 87550, "BSTAR": 3.5294e-05, "MEAN_MOTION_DOT": 6.6e-07, "MEAN_MOTION_DDOT": 0}, "tle": {"line1": "1 34678U 93036XY  25358.71963181  .00000066  00000+0  35294-4 0  9996", "line2": "2 34678  74.0378 343.9119 0024791  29.3456 145.6372 14.30067072875504"}}, "geometry": {"type": "Point", "coordinates": [-41.785668327070375, -55.78286994973844]}}, {"type": "Feature", "properties": {"norad_id": 34680, "name": "COSMOS 2251 DEB", "group": "cosmos-2251-debris", "lat": 27.482146858031573, "lon": -82.42212936925833, "alt_km": 686.7871123431132, "timestamp": "2025-12-25T03:55:56.762219+00:00", "meta": {"OBJECT_NAME": "COSMOS 2251 DEB", "OBJECT_ID": "1993-036YA", "EPOCH": "2025-12-23T15:21:33.153120", "MEAN_MOTION": 14.60731514, "ECCENTRICITY": 0.00063275, "INCLINATION": 74.0441, "RA_OF_ASC_NODE": 109.0451, "ARG_OF_PERICENTER": 210.5791, "MEAN_ANOMALY": 210.4022, "EPHEMERIS_TYPE": 0, "CLASSIFICATION_TYPE": "U", "NORAD_CAT_ID": 34680, "ELEMENT_SET_NO": 999, "REV_AT_EPOCH": 88487, "BSTAR": 0.0011410093, "MEAN_MOTION_DOT": 5.54e-05, "MEAN_MOTION_DDOT": 0}, "tle": {"line1": "1 34680U 93036YA  25357.63996705  .00005540  00000+0  11410-2 0  9991", "line2": "2 34680  74.0441 109.0451 0006327 210.5791 210.4022 14.60731514884874"}}, "geometry": {"type": "Point", "coordinates": [-82.42212936925833, 27.482146858031573]}}, {"type": "Feature", "properties": {"norad_id": 34681, "name": "COSMOS 2251 DEB", "group": "cosmos-2251-debris", "lat": -45.117405945517916, "lon": -110.83977618535341, "alt_km": 606.94797564483, "timestamp": "2025-12-25T03:55:56.762229+00:00", "meta": {"OBJECT_NAME": "COSMOS 2251 DEB", "OBJECT_ID": "1993-036YB", "EPOCH": "2025-12-24T18:42:25.058016", "MEAN_MOTION": 14.83480018, "ECCENTRICITY": 0.0025673, "INCLINATION": 74.062, "RA_OF_ASC_NODE": 266.5949, "ARG_OF_PERICENTER": 321.7388, "MEAN_ANOMALY": 98.9064, "EPHEMERIS_TYPE": 0, "CLASSIFICATION_TYPE": "U", "NORAD_CAT_ID": 34681, "ELEMENT_SET_NO": 999, "REV_AT_EPOCH": 89449, "BSTAR": 0.0014148, "MEAN_MOTION_DOT": 0.00011685, "MEAN_MOTION_DDOT": 0}, "tle": {"line1": "1 34681U 93036YB  25358.77945669  .00011685  00000+0  14148-2 0  9999", "line2": "2 34681  74.0620 266.5949 0025673 321.7388  98.9064 14.83480018894496"}}, "geometry": {"type": "Point", "coordinates": [-110.83977618535341, -45.117405945517916]}}, {"type": "Feature", "properties": {"norad_id": 34682, "name": "COSMOS 2251 DEB", "group": "cosmos-2251-debris", "lat": 52.31446082620187, "lon": 81.07131166077737, "alt_km": 700.165846940482, "timestamp": "2025-12-25T03:55:56.762240+00:00", "meta": {"OBJECT_NAME": "COSMOS 2251 DEB", "OBJECT_ID": "1993-036YC", "EPOCH": "2025-12-24T15:14:55.275072", "MEAN_MOTION": 14.58972919, "ECCENTRICITY": 0.0017704, "INCLINATION": 74.0393, "RA_OF_ASC_NODE": 60.3321, "ARG_OF_PERICENTER": 192.0267, "MEAN_ANOMALY": 328.9285, "EPHEMERIS_TYPE": 0, "CLASSIFICATION_TYPE": "U", "NORAD_CAT_ID": 34682, "ELEMENT_SET_NO": 999, "REV_AT_EPOCH": 88859, "BSTAR": 0.00071254, "MEAN_MOTION_DOT": 3.323e-05, "MEAN_MOTION_DDOT": 0}, "tle": {"line1": "1 34682U 93036YC  25358.63536198  .00003323  00000+0  71254-3 0  9990", "line2": "2 34682  74.0393  60.3321 0017704 192.0267 328.9285 14.58972919888592"}}, "geometry": {"type": "Point", "coordinates": [81.07131166077737, 52.31446082620187]}}, {"type": "Feature", "properties": {"norad_id": 34683, "name": "COSMOS 2251 DEB", "group": "cosmos-2251-debris", "lat": 71.50602392973698, "lon": -170.51843355479602, "alt_km": 669.5871583699845, "timestamp": "2025-12-25T03:55:56.762250+00:00", "meta": {"OBJECT_NAME": "COSMOS 2251 DEB", "OBJECT_ID": "1993-036YD", "EPOCH": "2025-12-24T16:44:03.936192", "MEAN_MOTION": 14.64633572, "ECCENTRICITY": 0.0017357, "INCLINATION": 74.0289, "RA_OF_ASC_NODE": 69.2741, "ARG_OF_PERICENTER": 183.9932, "MEAN_ANOMALY": 336.4823, "EPHEMERIS_TYPE": 0, "CLASSIFICATION_TYPE": "U", "NORAD_CAT_ID": 34683, "ELEMENT_SET_NO": 999, "REV_AT_EPOCH": 88523, "BSTAR": 0.0011998, "MEAN_MOTION_DOT": 6.366e-05, "MEAN_MOTION_DDOT": 0}, "tle": {"line1": "1 34683U 93036YD  25358.69726778  .00006366  00000+0  11998-2 0  9990", "line2": "2 34683  74.0289  69.2741 0017357 183.9932 336.4823 14.64633572885239"}}, "geometry": {"type": "Point", "coordinates": [-170.51843355479602, 71.50602392973698]}}]}